COSMOS 2433 (720)       
1 32275C 07052A   20353.99979167  .00000000  00000-0  00000-0 0  3537
2 32275  66.0278  22.7807 0005295 252.8076 233.7381  2.13104375    11
COSMOS 2432 (719)       
1 32276C 07052B   20353.99979167  .00000000  00000-0  00000-0 0  3538
2 32276  66.0405  22.8725 0011169 316.3612 119.8965  2.13103677    19
COSMOS 2434 (721)       
1 32393C 07065A   20353.99979167 -.00000000  00000-0  00000-0 0  3533
2 32393  64.5124 260.0914 0003194  70.2395 304.2257  2.13103095    17
COSMOS 2436 (723)       
1 32395C 07065C   19331.99979167  .00000000  00000-0  00000-0 0  3314
2 32395  64.6628 273.4180 0015428 335.5981 236.1653  2.13280743    12
COSMOS 2456 (730)       
1 36111C 09070A   20353.99979167 -.00000000  00000-0  00000-0 0  3533
2 36111  64.2511 139.7697 0002213 345.5098 201.9027  2.13099157    16
COSMOS 2457 (733)       
1 36112C 09070B   19331.99979167  .00000003  00000-0  00000-0 0  3316
2 36112  64.1929 152.9203 0006907 146.4578 270.9332  2.13101641    11
COSMOS 2459 (731)       
1 36400C 10007A   20330.99979167 -.00000004  00000-0  00000-0 0  3300
2 36400  65.9178  22.4636 0018434   1.3868 338.5011  2.13103875    12
COSMOS 2460 (732)       
1 36402C 10007C   20324.99979167 -.00000003  00000-0  00000-0 0  3247
2 36402  65.9038  22.6237 0002105 226.0667 133.6183  2.13101313    18
COSMOS 2464 (736)       
1 37139C 10041C   20353.99979167 -.00000000  00000-0  00000-0 0  3534
2 37139  64.1119 259.4384 0028400  10.3360 226.3737  2.13100732    19
COSMOS 2476 (744)       
1 37867C 11064A   20353.99979167 -.00000000  00000-0  00000-0 0  3538
2 37867  64.5481 140.9118 0018863 232.0291 216.1517  2.13101903    14
COSMOS 2477 (745)       
1 37868C 11064B   20353.99979167 -.00000000  00000-0  00000-0 0  3539
2 37868  64.5561 140.9703 0016279 232.3978  34.2101  2.13101757    13
COSMOS 2475 (743)       
1 37869C 11064C   20353.99979167 -.00000000  00000-0  00000-0 0  3530
2 37869  64.5635 140.9735 0019649 256.1757 327.9996  2.13101894    10
COSMOS 2485 (747)       
1 39155C 13019A   20353.99979167 -.00000000  00000-0  00000-0 0  3532
2 39155  64.7150 141.2213 0019492 227.5950 265.1273  2.13101844    18
COSMOS 2492 (754)       
1 39620C 14012A   20353.99979167  .00000000  00000-0  00000-0 0  3532
2 39620  65.7992  21.4106 0014419 315.3220 212.3312  2.13103328    17
COSMOS 2500 (755)       
1 40001C 14032A   20350.99979167  .00000000  00000-0  00000-0 0  3503
2 40001  65.7388  21.4137 0008255 218.0534  28.1805  2.13102293    13
COSMOS 2501 (702)       
1 40315C 14075A   20353.99979167 -.00000000  00000-0  00000-0 0  3535
2 40315  63.8261 260.3139 0015976 211.5475 341.9021  2.13101378    15
COSMOS 2514 (751)       
1 41330C 16008A   20353.99979167  .00000000  00000-0  00000-0 0  3530
2 41330  65.5419  21.1392 0011898 222.5932 347.9267  2.13102937    10
COSMOS 2516 (753)       
1 41554C 16032A   20349.99979167 -.00000002  00000-0  00000-0 0  3498
2 41554  64.7887 260.0743 0009233   6.7497 273.6158  2.12678905    16
COSMOS 2522 (752)       
1 42939C 17055A   20353.99979167 -.00000000  00000-0  00000-0 0  3530
2 42939  64.2837 260.6715 0006894 256.2647  72.0470  2.13102053    13
COSMOS 2527 (756)       
1 43508C 18053A   20353.99979167 -.00000000  00000-0  00000-0 0  3532
2 43508  64.8792 141.1075 0006742 214.5053 145.7849  2.13102615    16
COSMOS 2529 (757)       
1 43687C 18086A   20353.99979167 -.00000000  00000-0  00000-0 0  3536
2 43687  64.4977 260.8407 0009779 278.5021   5.3861  2.13102051    10
COSMOS 2534 (758)       
1 44299C 19030A   20353.99979167 -.00000000  00000-0  00000-0 0  3536
2 44299  64.5682 260.6748 0013127 295.2568 123.5701  2.13102009    13
COSMOS 2544 (759)       
1 44850C 19088A   20353.99979167 -.00000000  00000-0  00000-0 0  3532
2 44850  64.8637 140.9715 0009718 257.9219 146.2807  2.13102380    13
COSMOS 2545 (760)       
1 45358C 20018A   19320.99979167 -.00000004  00000-0  00000-0 0  3201
2 45358  65.8070  35.0079 0005134  75.6998 123.1059  2.13101688    16
